IRIDIUM 159             
1 43578U 18061K   25046.84988922 -.00000027  00000+0 -16758-4 0  9991
2 43578  86.3921 259.9076 0001745  90.4927 269.6468 14.34217062343678
IRIDIUM 180             
1 43922U 19002A   25046.91915437  .00000131  00000+0  39601-4 0  9995
2 43922  86.4007 196.7853 0002131  98.1001 262.0436 14.34218211319296
IRIDIUM 176             
1 43923U 19002B   25046.91801992  .00002591  00000+0  40683-3 0  9999
2 43923  86.6135 196.7881 0001553 117.1648 242.9728 14.72260491327703
IRIDIUM 168             
1 43924U 19002C   25046.91281105  .00000230  00000+0  75023-4 0  9993
2 43924  86.4011 196.8515 0001901  95.6294 264.5118 14.34218674319274
IRIDIUM 173             
1 43925U 19002D   25046.90011997  .00000079  00000+0  21272-4 0  9991
2 43925  86.4004 196.7656 0002215  96.9525 263.1922 14.34215049319251
IRIDIUM 169             
1 43926U 19002E   25046.91841548  .00000261  00000+0  78969-4 0  9994
2 43926  86.4203 228.3485 0003511 107.9191 252.2390 14.38587610320314
IRIDIUM 172             
1 43927U 19002F   25046.89378270  .00000711  00000+0  24681-3 0  9990
2 43927  86.4006 196.7748 0001900  97.0967 263.0445 14.34219331319267
IRIDIUM 175             
1 43928U 19002G   25046.84479435  .00003403  00000+0  53571-3 0  9992
2 43928  86.1560 156.2668 0003089  87.2524 272.9046 14.72239550327680
